COSMOS 2425 (716)       
1 29670U 06062A   21343.60670542 -.00000016  00000+0  00000+0 0  9997
2 29670  64.8007 249.5352 0024544 345.5235 265.2181  2.13110503116400
COSMOS 2433 (720)       
1 32275U 07052A   21346.76863034 -.00000060  00000+0  00000+0 0  9991
2 32275  66.0784  10.8668 0005054 244.7595  77.5842  2.13104208109982
COSMOS 2432 (719)       
1 32276U 07052B   21346.83608905 -.00000060  00000+0  00000+0 0  9994
2 32276  66.0926  10.9625 0010371 314.4456   8.4373  2.13103408109987
COSMOS 2434 (721)       
1 32393U 07065A   21346.36951032 -.00000028  00000+0  00000+0 0  9992
2 32393  64.4197 247.8186 0002520  70.0100 195.0442  2.13103095108688
COSMOS 2436 (723)       
1 32395U 07065C   21346.64737178 -.00000027  00000+0  00000+0 0  9997
2 32395  64.4283 247.8641 0015986 359.3229 254.8921  2.13102893108622
COSMOS 2456 (730)       
1 36111U 09070A   21346.63611191  .00000056  00000+0  00000+0 0  9991
2 36111  64.3103 127.4688 0001593 342.8869 294.8914  2.13099159 93351
COSMOS 2457 (733)       
1 36112U 09070B   21346.73380638  .00000055  00000+0  00000+0 0  9991
2 36112  64.2936 127.3460 0006801 150.2252 328.3072  2.13101365 93368
COSMOS 2459 (731)       
1 36400U 10007A   21346.25745800 -.00000061  00000+0  00000+0 0  9994
2 36400  65.9713   9.7848 0025886 345.2168 165.8688  2.13112474 91692
COSMOS 2461 (735)       
1 36401U 10007B   21346.26123920 -.00000061  00000+0  00000+0 0  9999
2 36401  65.9675   9.7486 0018759   0.4257 150.2903  2.13103647 91700
COSMOS 2460 (732)       
1 36402U 10007C   21346.85325744 -.00000060  00000+0  00000+0 0  9992
2 36402  65.9542   9.6829 0002340 245.4088 306.1078  2.13106420 91714
COSMOS 2464 (736)       
1 37139U 10041C   21346.81452308 -.00000024  00000+0  00000+0 0  9991
2 37139  64.0186 246.9717 0029276   9.8962  96.1620  2.13100795 87777
COSMOS 2471 (701K)      
1 37372U 11009A   21346.84293382 -.00000060  00000+0  00000+0 0  9993
2 37372  65.9489   9.6105 0017646 232.4230  71.9276  2.13063251 83989
COSMOS 2476 (744)       
1 37867U 11064A   21346.84196047  .00000058  00000+0  00000+0 0  9999
2 37867  64.6026 128.7450 0019949 230.6907 108.8674  2.13101768 78708
COSMOS 2477 (745)       
1 37868U 11064B   21346.73160196  .00000059  00000+0  00000+0 0  9995
2 37868  64.6103 128.8113 0017149 230.5712 202.5643  2.13101659 78667
COSMOS 2475 (743)       
1 37869U 11064C   21346.08991183  .00000064  00000+0  00000+0 0  9998
2 37869  64.6170 128.8396 0020506 252.3434   6.3844  2.13101852 78656
COSMOS 2485 (747)       
1 39155U 13019A   21346.70390042  .00000060  00000+0  00000+0 0  9992
2 39155  64.7676 129.1375 0020449 226.2766  51.8268  2.13101843 67173
COSMOS 2492 (754)       
1 39620U 14012A   21346.41365861 -.00000061  00000+0  00000+0 0  9994
2 39620  65.8405   9.4047 0014062 313.7897 136.2586  2.13103212 60120
COSMOS 2500 (755)       
1 40001U 14032A   21346.72438655 -.00000060  00000+0  00000+0 0  9996
2 40001  65.7826   9.2684 0008123 214.1614 333.4271  2.13102346 58348
COSMOS 2501 (702K)      
1 40315U 14075A   21346.81256039 -.00000026  00000+0  00000+0 0  9997
2 40315  63.7286 247.7114 0017035 210.6049 211.7493  2.13101287 54754
COSMOS 2514 (751)       
1 41330U 16008A   21346.71183235 -.00000061  00000+0  00000+0 0  9998
2 41330  65.5836   9.0067 0012124 219.0716 142.3690  2.13102762 45518
COSMOS 2516 (753)       
1 41554U 16032A   21346.46827574 -.00000028  00000+0  00000+0 0  9999
2 41554  63.9535 247.9471 0013193 219.6614 214.0447  2.13106187 43112
COSMOS 2522 (752)       
1 42939U 17055A   21346.20001691 -.00000029  00000+0  00000+0 0  9990
2 42939  64.1876 248.2968 0007381 251.0446 196.6194  2.13102083 32866
COSMOS 2527 (756)       
1 43508U 18053A   21346.59855991  .00000061  00000+0  00000+0 0  9999
2 43508  64.9309 129.1020 0007086 212.5995 212.9314  2.13102536 27163
COSMOS 2529 (757)       
1 43687U 18086A   21346.81586565 -.00000027  00000+0  00000+0 0  9999
2 43687  64.4023 248.5414 0009751 273.4721 242.1818  2.13102105 24181
COSMOS 2534 (758)       
1 44299U 19030A   21346.60998760 -.00000028  00000+0  00000+0 0  9991
2 44299  64.4735 248.4156 0012791 292.0694 200.3438  2.13101900 19828
COSMOS 2544 (759)       
1 44850U 19088A   21346.83743567  .00000059  00000+0  00000+0 0  9998
2 44850  64.9161 128.9506 0010089 252.9885  39.4045  2.13102319 15595
COSMOS 2545 (760)       
1 45358U 20018A   21346.57057188 -.00000063  00000+0  00000+0 0  9991
2 45358  64.9181   9.7730 0011384 247.8021  49.6207  2.13102660 13545
